INTELSAT 21 (IS-21)     
1 38749U 12045A   26162.54039066 -.00000268  00000+0  00000+0 0  9998
2 38749   0.0188 289.0635 0001321 163.5253 303.8368  1.00272424 50463
INTELSAT 23 (IS-23)     
1 38867U 12057A   26162.37406100 -.00000268  00000+0  00000+0 0  9990
2 38867   0.0140 307.2279 0000038 196.2343 197.9213  1.00268413 49895
FM-6                    
1 39360U 13058A   26161.91780745  .00000002  00000+0  00000+0 0  9995
2 39360   0.0114  47.7834 0001681 116.7333 308.7742  1.00268329 46015
INTELSAT 30 (IS-30)     
1 40271U 14062A   26162.60436060 -.00000135  00000+0  00000+0 0  9997
2 40271   0.0279  49.7090 0001227 329.1224   3.6301  1.00277984  6735
DIRECTV 14              
1 40333U 14078B   26161.26641970 -.00000108  00000+0  00000+0 0  9992
2 40333   0.0092   5.4718 0000188 266.0574 343.7738  1.00270829 41973
DIRECTV 15              
1 40663U 15026A   26162.67410683 -.00000086  00000+0  00000+0 0  9998
2 40663   0.0180  10.3830 0000635 273.8943 115.5426  1.00269288 40403
SKY MEXICO-1            
1 40664U 15026B   26162.53631730 -.00000217  00000+0  00000+0 0  9998
2 40664   0.0185 327.3821 0002093 135.5940 271.1791  1.00270302 40392
INTELSAT 34 (IS-34)     
1 40874U 15039A   26162.32698867 -.00000268  00000+0  00000+0 0  9992
2 40874   0.0095 328.8375 0000320 355.2995 357.7670  1.00269705 39577
INTELSAT 31 (IS-31)     
1 41581U 16035A   26162.39350560 -.00000133  00000+0  00000+0 0  9998
2 41581   0.0157 269.5777 0001173 342.3621  54.4174  1.00265308 36627
INTELSAT 36 (IS-36)     
1 41747U 16053A   26162.77933044 -.00000008  00000+0  00000+0 0  9999
2 41747   0.0125   9.1974 0001733 322.6867 277.2852  1.00272652 35906
INTELSAT 32E (IS-32E)   
1 41945U 17007B   26162.82851984 -.00000253  00000+0  00000+0 0  9999
2 41945   0.0170 335.0320 0000599 303.7892 236.4396  1.00267656 34175
INTELSAT 35E (IS-35E)   
1 42818U 17041A   26162.68762690  .00000000  00000+0  00000+0 0  9995
2 42818   0.0257 337.8415 0001539  98.2517  36.9969  1.00268855 32765
INTELSAT 37E (IS-37E)   
1 42950U 17059A   26162.76217652 -.00000124  00000+0  00000+0 0  9991
2 42950   0.0171  18.3283 0002410  80.3310  57.8288  1.00272898 32019
AZERSPACE 2 (IS-38)     
1 43632U 18074A   26162.13310603  .00000154  00000+0  00000+0 0  9990
2 43632   0.0036  69.3548 0001198  12.8510 270.3100  1.00271976 28387
HORIZONS-3E             
1 43633U 18074B   26162.65668676 -.00000014  00000+0  00000+0 0  9990
2 43633   0.0168 153.8582 0000942 115.9640  35.5804  1.00270916 28280
AT&T T-16               
1 44333U 19034A   26162.67454019 -.00000099  00000+0  00000+0 0  9994
2 44333   0.0236  64.6927 0000684 225.1191 112.1847  1.00271431 25575
INTELSAT 39 (IS-39)     
1 44476U 19049B   26161.94037841  .00000000  00000+0  00000+0 0  9998
2 44476   0.0255 336.9481 0001082 329.3092 353.5144  1.00269836 25065
GALAXY 30 (G-30)        
1 46114U 20056C   26162.66968683  .00000054  00000+0  00000+0 0  9995
2 46114   0.0016  14.0582 0002095  71.7827 290.2690  1.00270074 21230
GALAXY 33 (G-33)        
1 54026U 22128A   26162.73940324  .00000096  00000+0  00000+0 0  9994
2 54026   0.0068 328.0284 0001667 116.5773 308.6720  1.00270185 13688
GALAXY 34 (G-34)        
1 54027U 22128B   26162.66890682  .00000000  00000+0  00000+0 0  9993
2 54027   0.0219 345.5528 0001576 108.0855 278.1799  1.00273054 13852
GALAXY 31 (G-31)        
1 54243U 22153A   26162.67046683  .00000030  00000+0  00000+0 0  9999
2 54243   0.0180 295.7377 0001130 136.8388 307.8081  1.00270115  7079
GALAXY 32 (G-32)        
1 54244U 22153B   26162.53389064 -.00000158  00000+0  00000+0 0  9990
2 54244   0.0099   2.4088 0002088  31.9937 326.6811  1.00271889 13086
GALAXY 35 (G-35)        
1 54741U 22170A   26162.60470727 -.00000145  00000+0  00000+0 0  9992
2 54741   0.0155 296.8943 0001889 146.7176 300.9339  1.00270834 12839
GALAXY 36 (G-36)        
1 54742U 22170B   26162.60557396 -.00000169  00000+0  00000+0 0  9997
2 54742   0.0360 125.6767 0002574 316.8090 306.4760  1.00271833 12714
GALAXY 37 (G-37)        
1 57493U 23112A   26162.66934015  .00000065  00000+0  00000+0 0  9997
2 57493   0.0164  13.6173 0001827  65.4944 294.8664  1.00270650 10485
